[{"OBJECT_NAME":"IRIDIUM 33","OBJECT_ID":"1997-051C","EPOCH":"2023-09-15T11:38:46.645440","MEAN_MOTION":14.34105612,"ECCENTRICITY":0.0008439,"INCLINATION":86.3858,"RA_OF_ASC_NODE":51.6953,"ARG_OF_PERICENTER":23.3445,"MEAN_ANOMALY":336.8132,"EPHEMERIS_TYPE":0,"CLASSIFICATION_TYPE":"U","NORAD_CAT_ID":24946,"ELEMENT_SET_NO":999,"REV_AT_EPOCH":36089,"BSTAR":0.00014733,"MEAN_MOTION_DOT":4.32e-6,"MEAN_MOTION_DDOT":0},{"OBJECT_NAME":"IRIDIUM 33 DEB","OBJECT_ID":"1997-051L","EPOCH":"2023-09-15T11:23:46.893984","MEAN_MOTION":14.39899232,"ECCENTRICITY":0.0010603,"INCLINATION":86.4016,"RA_OF_ASC_NODE":46.6338,"ARG_OF_PERICENTER":348.1574,"MEAN_ANOMALY":11.9374,"EPHEMERIS_TYPE":0,"CLASSIFICATION_TYPE":"U","NORAD_CAT_ID":33773,"ELEMENT_SET_NO":999,"REV_AT_EPOCH":76544,"BSTAR":0.00046086,"MEAN_MOTION_DOT":1.468e-5,"MEAN_MOTION_DDOT":0},{"OBJECT_NAME":"IRIDIUM 33 DEB","OBJECT_ID":"1997-051N","EPOCH":"2023-09-15T10:18:37.699200","MEAN_MOTION":14.37071875,"ECCENTRICITY":0.0014064,"INCLINATION":86.368,"RA_OF_ASC_NODE":37.8598,"ARG_OF_PERICENTER":350.4869,"MEAN_ANOMALY":75.037,"EPHEMERIS_TYPE":0,"CLASSIFICATION_TYPE":"U","NORAD_CAT_ID":33775,"ELEMENT_SET_NO":999,"REV_AT_EPOCH":76355,"BSTAR":0.00057612,"MEAN_MOTION_DOT":1.73e-5,"MEAN_MOTION_DDOT":0},{"OBJECT_NAME":"IRIDIUM 33 DEB","OBJECT_ID":"1997-051P","EPOCH":"2023-09-15T12:10:13.235232","MEAN_MOTION":14.35369393,"ECCENTRICITY":0.0014833,"INCLINATION":86.4013,"RA_OF_ASC_NODE":63.8646,"ARG_OF_PERICENTER":9.6062,"MEAN_ANOMALY":48.2548,"EPHEMERIS_TYPE":0,"CLASSIFICATION_TYPE":"U","NORAD_CAT_ID":33776,"ELEMENT_SET_NO":999,"REV_AT_EPOCH":76318,"BSTAR":0.00044234,"MEAN_MOTION_DOT":1.289e-5,"MEAN_MOTION_DDOT":0},{"OBJECT_NAME":"IRIDIUM 33 DEB","OBJECT_ID":"1997-051Q","EPOCH":"2023-09-15T09:13:15.867552","MEAN_MOTION":14.45513353,"ECCENTRICITY":0.0012969,"INCLINATION":86.3867,"RA_OF_ASC_NODE":28.3519,"ARG_OF_PERICENTER":126.1456,"MEAN_ANOMALY":234.0948,"EPHEMERIS_TYPE":0,"CLASSIFICATION_TYPE":"U","NORAD_CAT_ID":33777,"ELEMENT_SET_NO":999,"REV_AT_EPOCH":76656,"BSTAR":0.0013475,"MEAN_MOTION_DOT":4.774e-5,"MEAN_MOTION_DDOT":0},{"OBJECT_NAME":"IRIDIUM 33 DEB","OBJECT_ID":"1997-051T","EPOCH":"2023-09-15T09:06:33.615072","MEAN_MOTION":14.37759263,"ECCENTRICITY":0.0010848,"INCLINATION":86.348,"RA_OF_ASC_NODE":21.0531,"ARG_OF_PERICENTER":355.6277,"MEAN_ANOMALY":62.9524,"EPHEMERIS_TYPE":0,"CLASSIFICATION_TYPE":"U","NORAD_CAT_ID":33850,"ELEMENT_SET_NO":999,"REV_AT_EPOCH":76361,"BSTAR":0.00074501,"MEAN_MOTION_DOT":2.262e-5,"MEAN_MOTION_DDOT":0},{"OBJECT_NAME":"IRIDIUM 33 DEB","OBJECT_ID":"1997-051W","EPOCH":"2023-09-15T06:05:15.158688","MEAN_MOTION":13.93201017,"ECCENTRICITY":0.0225174,"INCLINATION":86.0052,"RA_OF_ASC_NODE":347.2211,"ARG_OF_PERICENTER":219.0876,"MEAN_ANOMALY":167.5351,"EPHEMERIS_TYPE":0,"CLASSIFICATION_TYPE":"U","NORAD_CAT_ID":33853,"ELEMENT_SET_NO":999,"REV_AT_EPOCH":73911,"BSTAR":0.0027979,"MEAN_MOTION_DOT":4.51e-5,"MEAN_MOTION_DDOT":0},{"OBJECT_NAME":"IRIDIUM 33 DEB","OBJECT_ID":"1997-051X","EPOCH":"2023-09-15T08:46:38.927712","MEAN_MOTION":14.99214723,"ECCENTRICITY":0.0004536,"INCLINATION":86.2086,"RA_OF_ASC_NODE":218.8938,"ARG_OF_PERICENTER":84.3109,"MEAN_ANOMALY":33.2581,"EPHEMERIS_TYPE":0,"CLASSIFICATION_TYPE":"U","NORAD_CAT_ID":33854,"ELEMENT_SET_NO":999,"REV_AT_EPOCH":77614,"BSTAR":0.006736,"MEAN_MOTION_DOT":0.00082944,"MEAN_MOTION_DDOT":0},{"OBJECT_NAME":"IRIDIUM 33 DEB","OBJECT_ID":"1997-051AC","EPOCH":"2023-09-15T08:36:18.900576","MEAN_MOTION":14.51709626,"ECCENTRICITY":0.0044483,"INCLINATION":86.3387,"RA_OF_ASC_NODE":14.307,"ARG_OF_PERICENTER":304.6081,"MEAN_ANOMALY":55.0932,"EPHEMERIS_TYPE":0,"CLASSIFICATION_TYPE":"U","NORAD_CAT_ID":33859,"ELEMENT_SET_NO":999,"REV_AT_EPOCH":76451,"BSTAR":0.0040173,"MEAN_MOTION_DOT":0.00016377,"MEAN_MOTION_DDOT":0},{"OBJECT_NAME":"IRIDIUM 33 DEB","OBJECT_ID":"1997-051AD","EPOCH":"2023-09-15T15:41:40.255296","MEAN_MOTION":14.5023783,"ECCENTRICITY":0.00117,"INCLINATION":86.394,"RA_OF_ASC_NODE":24.1618,"ARG_OF_PERICENTER":215.6161,"MEAN_ANOMALY":207.0884,"EPHEMERIS_TYPE":0,"CLASSIFICATION_TYPE":"U","NORAD_CAT_ID":33860,"ELEMENT_SET_NO":999,"REV_AT_EPOCH":76796,"BSTAR":0.0013224,"MEAN_MOTION_DOT":5.169e-5,"MEAN_MOTION_DDOT":0},{"OBJECT_NAME":"IRIDIUM 33 DEB","OBJECT_ID":"1997-051AF","EPOCH":"2023-09-15T10:45:01.321344","MEAN_MOTION":14.51591905,"ECCENTRICITY":0.0061416,"INCLINATION":86.4158,"RA_OF_ASC_NODE":33.2579,"ARG_OF_PERICENTER":336.9211,"MEAN_ANOMALY":92.7448,"EPHEMERIS_TYPE":0,"CLASSIFICATION_TYPE":"U","NORAD_CAT_ID":33862,"ELEMENT_SET_NO":999,"REV_AT_EPOCH":76866,"BSTAR":0.0015527,"MEAN_MOTION_DOT":6.392e-5,"MEAN_MOTION_DDOT":0},{"OBJECT_NAME":"IRIDIUM 33 DEB","OBJECT_ID":"1997-051AH","EPOCH":"2023-09-15T13:48:32.991840","MEAN_MOTION":14.61397866,"ECCENTRICITY":0.0012095,"INCLINATION":86.2675,"RA_OF_ASC_NODE":300.1152,"ARG_OF_PERICENTER":111.1894,"MEAN_ANOMALY":10.2658,"EPHEMERIS_TYPE":0,"CLASSIFICATION_TYPE":"U","NORAD_CAT_ID":33864,"ELEMENT_SET_NO":999,"REV_AT_EPOCH":76951,"BSTAR":0.002352,"MEAN_MOTION_DOT":0.00011676,"MEAN_MOTION_DDOT":0},{"OBJECT_NAME":"IRIDIUM 33 DEB","OBJECT_ID":"1997-051AK","EPOCH":"2023-09-15T18:26:19.216608","MEAN_MOTION":14.17592016,"ECCENTRICITY":0.0115634,"INCLINATION":86.3002,"RA_OF_ASC_NODE":77.2517,"ARG_OF_PERICENTER":253.6198,"MEAN_ANOMALY":117.9144,"EPHEMERIS_TYPE":0,"CLASSIFICATION_TYPE":"U","NORAD_CAT_ID":33866,"ELEMENT_SET_NO":999,"REV_AT_EPOCH":75180,"BSTAR":0.00096212,"MEAN_MOTION_DOT":2.104e-5,"MEAN_MOTION_DDOT":0},{"OBJECT_NAME":"IRIDIUM 33 DEB","OBJECT_ID":"1997-051AL","EPOCH":"2023-09-15T16:58:38.797536","MEAN_MOTION":14.66560247,"ECCENTRICITY":0.0020828,"INCLINATION":86.4215,"RA_OF_ASC_NODE":4.741,"ARG_OF_PERICENTER":52.3234,"MEAN_ANOMALY":307.9865,"EPHEMERIS_TYPE":0,"CLASSIFICATION_TYPE":"U","NORAD_CAT_ID":33867,"ELEMENT_SET_NO":999,"REV_AT_EPOCH":77316,"BSTAR":0.0011922,"MEAN_MOTION_DOT":6.657e-5,"MEAN_MOTION_DDOT":0},{"OBJECT_NAME":"IRIDIUM 33 DEB","OBJECT_ID":"1997-051AN","EPOCH":"2023-09-15T10:09:22.131648","MEAN_MOTION":14.75525922,"ECCENTRICITY":0.0046482,"INCLINATION":86.3386,"RA_OF_ASC_NODE":38.4326,"ARG_OF_PERICENTER":347.7531,"MEAN_ANOMALY":12.2553,"EPHEMERIS_TYPE":0,"CLASSIFICATION_TYPE":"U","NORAD_CAT_ID":33869,"ELEMENT_SET_NO":999,"REV_AT_EPOCH":76323,"BSTAR":0.0077073,"MEAN_MOTION_DOT":0.00053767,"MEAN_MOTION_DDOT":0},{"OBJECT_NAME":"IRIDIUM 33 DEB","OBJECT_ID":"1997-051AP","EPOCH":"2023-09-15T11:20:30.297696","MEAN_MOTION":14.38356048,"ECCENTRICITY":0.0022458,"INCLINATION":86.3776,"RA_OF_ASC_NODE":47.0367,"ARG_OF_PERICENTER":14.4451,"MEAN_ANOMALY":46.6499,"EPHEMERIS_TYPE":0,"CLASSIFICATION_TYPE":"U","NORAD_CAT_ID":33870,"ELEMENT_SET_NO":999,"REV_AT_EPOCH":76329,"BSTAR":0.0010864,"MEAN_MOTION_DOT":3.337e-5,"MEAN_MOTION_DDOT":0},{"OBJECT_NAME":"IRIDIUM 33 DEB","OBJECT_ID":"1997-051AS","EPOCH":"2023-09-15T12:23:02.388768","MEAN_MOTION":14.77784518,"ECCENTRICITY":0.0014441,"INCLINATION":86.368,"RA_OF_ASC_NODE":337.2005,"ARG_OF_PERICENTER":7.3991,"MEAN_ANOMALY":352.7439,"EPHEMERIS_TYPE":0,"CLASSIFICATION_TYPE":"U","NORAD_CAT_ID":33873,"ELEMENT_SET_NO":999,"REV_AT_EPOCH":77217,"BSTAR":0.0023388,"MEAN_MOTION_DOT":0.00016861,"MEAN_MOTION_DDOT":0}]
