IRIDIUM 33              
1 24946U 97051C   23258.48526210  .00000432  00000+0  14733-3 0  9994
2 24946  86.3858  51.6953 0008439  23.3445 336.8132 14.34105612360898
IRIDIUM 33 DEB          
1 33773U 97051L   23258.47484831  .00001468  00000+0  46086-3 0  9999
2 33773  86.4016  46.6338 0010603 348.1574  11.9374 14.39899232765443
IRIDIUM 33 DEB          
1 33775U 97051N   23258.42960300  .00001730  00000+0  57612-3 0  9995
2 33775  86.3680  37.8598 0014064 350.4869  75.0370 14.37071875763559
IRIDIUM 33 DEB          
1 33776U 97051P   23258.50709763  .00001289  00000+0  44234-3 0  9994
2 33776  86.4013  63.8646 0014833   9.6062  48.2548 14.35369393763187
IRIDIUM 33 DEB          
1 33777U 97051Q   23258.38421143  .00004774  00000+0  13475-2 0  9998
2 33777  86.3867  28.3519 0012969 126.1456 234.0948 14.45513353766561
IRIDIUM 33 DEB          
1 33850U 97051T   23258.37955573  .00002262  00000+0  74501-3 0  9996
2 33850  86.3480  21.0531 0010848 355.6277  62.9524 14.37759263763616
IRIDIUM 33 DEB          
1 33853U 97051W   23258.25364767  .00004510  00000+0  27979-2 0  9999
2 33853  86.0052 347.2211 0225174 219.0876 167.5351 13.93201017739115
IRIDIUM 33 DEB          
1 33854U 97051X   23258.36572833  .00082944  00000+0  67360-2 0  9992
2 33854  86.2086 218.8938 0004536  84.3109  33.2581 14.99214723776146
IRIDIUM 33 DEB          
1 33859U 97051AC  23258.35855209  .00016377  00000+0  40173-2 0  9997
2 33859  86.3387  14.3070 0044483 304.6081  55.0932 14.51709626764513
IRIDIUM 33 DEB          
1 33860U 97051AD  23258.65393814  .00005169  00000+0  13224-2 0  9995
2 33860  86.3940  24.1618 0011700 215.6161 207.0884 14.50237830767962
IRIDIUM 33 DEB          
1 33862U 97051AF  23258.44793196  .00006392  00000+0  15527-2 0  9998
2 33862  86.4158  33.2579 0061416 336.9211  92.7448 14.51591905768665
IRIDIUM 33 DEB          
1 33864U 97051AH  23258.57538185  .00011676  00000+0  23520-2 0  9992
2 33864  86.2675 300.1152 0012095 111.1894  10.2658 14.61397866769515
IRIDIUM 33 DEB          
1 33866U 97051AK  23258.76827797  .00002104  00000+0  96212-3 0  9990
2 33866  86.3002  77.2517 0115634 253.6198 117.9144 14.17592016751804
IRIDIUM 33 DEB          
1 33867U 97051AL  23258.70739349  .00006657  00000+0  11922-2 0  9991
2 33867  86.4215   4.7410 0020828  52.3234 307.9865 14.66560247773163
IRIDIUM 33 DEB          
1 33869U 97051AN  23258.42317282  .00053767  00000+0  77073-2 0  9993
2 33869  86.3386  38.4326 0046482 347.7531  12.2553 14.75525922763236
IRIDIUM 33 DEB          
1 33870U 97051AP  23258.47257289  .00003337  00000+0  10864-2 0  9993
2 33870  86.3776  47.0367 0022458  14.4451  46.6499 14.38356048763294
IRIDIUM 33 DEB          
1 33873U 97051AS  23258.51599987  .00016861  00000+0  23388-2 0  9996
2 33873  86.3680 337.2005 0014441   7.3991 352.7439 14.77784518772179
